ONEWEB-0634             
1 56075U 23043AF  25296.76272093  .00001599  00000+0  42108-2 0  9995
2 56075  87.8967 306.4149 0002241  88.1532 271.9855 13.15558684125318
ONEWEB-0635             
1 56076U 23043AG  25296.45373010 -.00000286  00000+0 -79454-3 0  9992
2 56076  87.8961 306.4336 0001554  92.0058 268.1251 13.15548270125301
ONEWEB-0636             
1 56077U 23043AH  25296.97822687 -.00000046  00000+0 -15502-3 0  9997
2 56077  87.8959 306.3471 0001625  91.5762 268.5555 13.15548049125353
ONEWEB-0637             
1 56078U 23043AJ  25296.97186893 -.00000241  00000+0 -67447-3 0  9992
2 56078  87.8963 306.3626 0001787  82.1752 277.9581 13.15546780125370
ONEWEB-0647             
1 56079U 23043AK  25296.96713743  .00000003  00000+0 -25242-4 0  9995
2 56079  87.8965 306.3772 0001734  96.6596 263.4732 13.15547779125369
ONEWEB-0651             
1 56080U 23043AL  25296.96236591 -.00000245  00000+0 -68606-3 0  9997
2 56080  87.8966 306.3705 0001613  86.8540 273.2774 13.15547714126561
ONEWEB-0718             
1 56081U 23043AM  25296.95763428  .00000133  00000+0  31788-3 0  9996
2 56081  87.8966 306.3522 0002355  85.5779 274.5620 13.15549990125373
ONEWEB-0561             
1 56710U 23068A   25296.53356536 -.00000029  00000+0 -10329-3 0  9998
2 56710  87.9197 321.6509 0001448 103.4449 256.6846 13.20770610118262
